     2.11           N: GPS NAV DATA                         RINEX VERSION / TYPE
teqc  2019Feb25                         20221121 12:26:58UTCPGM / RUN BY / DATE
OSX ker:10.11.6|Core i5|gcc 4.3 -m64|OSX ker:10.10+|=+      COMMENT
    6.5193D-09  1.4901D-08 -5.9605D-08 -1.1921D-07          ION ALPHA
    7.7824D+04  3.2768D+04 -6.5536D+04 -1.9661D+05          ION BETA
    6.519258022308D-09 7.993605777301D-15    61440     1548 DELTA-UTC: A0,A1,T,W
                                                            END OF HEADER
11 09  9  6  0  0  0.0-1.830793917179D-05-1.591615728103D-12 0.000000000000D+00
    6.500000000000D+01 8.687500000000D+01 6.233831092658D-09 1.979141835224D+00
    4.479661583900D-06 9.762096800841D-03 1.058913767338D-05 5.153704563141D+03
    0.000000000000D+00-2.756714820862D-07-2.493666009530D+00-5.029141902924D-08
    8.893264311698D-01 1.364687500000D+02 7.218501094631D-01-8.834296555340D-09
    4.568047420368D-10 1.000000000000D+00 1.548000000000D+03 0.000000000000D+00
    2.000000000000D+00 0.000000000000D+00-1.164153218269D-08 6.500000000000D+01
   -7.182000000000D+03 4.000000000000D+00
17 09  9  6  0  0  0.0 8.269865065813D-05 2.955857780762D-12 0.000000000000D+00
    6.500000000000D+01-5.306250000000D+01 4.403397704904D-09-1.397874051157D+00
   -2.697110176086D-06 4.644985077903D-03 1.204013824463D-05 5.153738492966D+03
    0.000000000000D+00 6.705522537231D-08 2.980709977232D+00-6.146728992462D-08
    9.603519012086D-01 1.455625000000D+02-2.642403215226D+00-7.898900449481D-09
   -1.689356082747D-10 1.000000000000D+00 1.548000000000D+03 0.000000000000D+00
    2.800000000000D+00 0.000000000000D+00-1.024454832077D-08 6.500000000000D+01
   -7.182000000000D+03 4.000000000000D+00
28 09  9  6  0  0  0.0-2.619065344334D-05 1.136868377216D-13 0.000000000000D+00
    9.400000000000D+01-3.396875000000D+01 4.877346018182D-09-8.493107882205D-01
   -1.400709152222D-06 1.506569585763D-02 3.725290298462D-06 5.153645236969D+03
    0.000000000000D+00-3.352761268616D-08 1.946221802853D+00 3.278255462646D-07
    9.673116783798D-01 3.126875000000D+02-2.018143801756D+00-8.585357614605D-09
   -8.036049019412D-11 1.000000000000D+00 1.548000000000D+03 0.000000000000D+00
    2.800000000000D+00 0.000000000000D+00-1.024454832077D-08 9.400000000000D+01
   -7.182000000000D+03 4.000000000000D+00
 9 09  9  6  0  0  0.0 7.591489702463D-05 2.046363078989D-12 0.000000000000D+00
    0.000000000000D+00 6.493750000000D+01 4.084813006001D-09 1.207045835241D+00
    3.110617399216D-06 2.071929781232D-02 8.694827556610D-06 5.153629814148D+03
    0.000000000000D+00-3.110617399216D-07 8.346613811225D-01-3.576278686523D-07
    9.774677238199D-01 2.234375000000D+02 1.510659003457D+00-8.143910655139D-09
    4.664480008601D-10 1.000000000000D+00 1.548000000000D+03 0.000000000000D+00
    2.000000000000D+00 0.000000000000D+00-5.587935447693D-09 0.000000000000D+00
   -7.182000000000D+03 4.000000000000D+00
26 09  9  6  0  0  0.0 6.345147266984D-05-7.958078640513D-13 0.000000000000D+00
    7.100000000000D+01-4.287500000000D+01 3.485145170285D-09 1.544655342695D+00
   -2.404674887657D-06 1.970410812646D-02 1.257844269276D-05 5.153611063004D+03
    0.000000000000D+00-3.650784492493D-07-1.214400993819D-01-1.732259988785D-07
    9.926217308622D-01 1.645000000000D+02 1.024307780131D+00-7.616031523997D-09
   -4.071598169835D-10 1.000000000000D+00 1.548000000000D+03 0.000000000000D+00
    2.000000000000D+00 0.000000000000D+00-6.053596735001D-09 7.100000000000D+01
   -7.182000000000D+03 4.000000000000D+00
27 09  9  6  0  0  0.0 8.030980825424D-05 3.183231456205D-12 0.000000000000D+00
    4.100000000000D+01 8.109375000000D+01 3.929449391625D-09-1.784932019800D+00
    4.632398486137D-06 2.132011181675D-02 8.231028914452D-06 5.153747701645D+03
    0.000000000000D+00 2.495944499969D-07 8.103878441351D-01 4.246830940247D-07
    9.755326386901D-01 2.258437500000D+02-1.549858541464D+00-7.746036939245D-09
    5.121641908372D-10 1.000000000000D+00 1.548000000000D+03 0.000000000000D+00
    2.000000000000D+00 0.000000000000D+00-4.190951585770D-09 4.100000000000D+01
   -7.182000000000D+03 4.000000000000D+00
14 09  9  6  0  0  0.0-5.495967343450D-05 5.343281372916D-12 0.000000000000D+00
    6.000000000000D+01-3.256250000000D+01 3.570148711024D-09-1.897233318217D+00
   -1.726672053337D-06 4.879482672550D-03 1.204386353493D-05 5.153643207550D+03
    0.000000000000D+00 1.080334186554D-07-1.390091544950D-01-1.043081283569D-07
    9.882464354708D-01 1.654687500000D+02-2.160719832871D+00-7.426737924873D-09
   -3.300137463972D-10 1.000000000000D+00 1.548000000000D+03 0.000000000000D+00
    2.000000000000D+00 0.000000000000D+00-8.847564458847D-09 6.000000000000D+01
   -7.182000000000D+03 4.000000000000D+00
 4 09  9  6  0  0  0.0-2.524475567043D-04-1.728039933369D-11 0.000000000000D+00
    4.700000000000D+01 7.818750000000D+01 5.249861534948D-09 3.810128810016D-01
    4.265457391739D-06 8.708397508599D-03 7.845461368561D-06 5.153796094894D+03
    0.000000000000D+00 2.048909664154D-08-2.270157287746D+00 4.842877388000D-08
    9.400578159242D-01 2.144687500000D+02 5.100818011944D-01-8.542498686502D-09
    3.457286867018D-10 1.000000000000D+00 1.548000000000D+03 0.000000000000D+00
    2.000000000000D+00 0.000000000000D+00-6.053596735001D-09 4.700000000000D+01
   -3.792000000000D+03 4.000000000000D+00
12 09  9  6  0  0  0.0-2.233167178929D-04 5.798028723802D-12 0.000000000000D+00
    7.000000000000D+01-3.315625000000D+01 4.747340602934D-09 2.141502332408D+00
   -1.979991793633D-06 3.106576623395D-03 3.417953848839D-06 5.153577630997D+03
    0.000000000000D+00 6.519258022308D-08 1.921056863066D+00 3.166496753693D-08
    9.676997700654D-01 3.175937500000D+02-5.973820520003D-01-8.336775831605D-09
   -1.175048945505D-10 1.000000000000D+00 1.548000000000D+03 0.000000000000D+00
    2.000000000000D+00 0.000000000000D+00-1.164153218269D-08 7.000000000000D+01
   -3.762000000000D+03 4.000000000000D+00
23 09  9  6  0  0  0.0 3.888644278049D-04-3.410605131648D-13 0.000000000000D+00
    3.100000000000D+01-5.303125000000D+01 3.991594837375D-09-2.550722905767D+00
   -2.775341272354D-06 6.461406708695D-03 1.256726682186D-05 5.153580726624D+03
    0.000000000000D+00-8.381903171539D-08-1.732728010505D-01 0.000000000000D+00
    9.701701998259D-01 1.409687500000D+02 2.963410745655D+00-7.722107371054D-09
   -3.732298322349D-10 1.000000000000D+00 1.548000000000D+03 0.000000000000D+00
    2.000000000000D+00 0.000000000000D+00-2.002343535423D-08 3.100000000000D+01
   -5.820000000000D+02 4.000000000000D+00
30 09  9  6  0  0  0.0 1.745354384184D-04 3.069544618484D-12 0.000000000000D+00
    4.900000000000D+01-2.571875000000D+01 5.179858619046D-09-3.600663942335D-01
   -1.445412635803D-06 1.188475487288D-02 3.458932042122D-06 5.153668918610D+03
    0.000000000000D+00-1.117587089539D-07 1.871648850099D+00 9.126961231232D-08
    9.527968392642D-01 3.149062500000D+02 1.450110565029D+00-8.769293847716D-09
   -7.857470152314D-12 1.000000000000D+00 1.548000000000D+03 0.000000000000D+00
    2.000000000000D+00 0.000000000000D+00-7.916241884232D-09 4.900000000000D+01
   -1.200000000000D+01 4.000000000000D+00
